{
  "type": "FeatureCollection",
  "features": [
    {
      "type": "Feature",
      "properties": {
        "code": "SKT",
        "bound": "west",
        "name_zh": "筲箕灣總站",
        "name_en": "Shau Kei Wan Terminus",
        "marker-symbol": "rail-above"
      },
      "geometry": {
        "type": "Point",
        "coordinates": [
          114.230257,
          22.27778
        ]
      }
    },
    {
      "type": "Feature",
      "properties": {
        "code": "02W",
        "bound": "west",
        "name_zh": "柴灣道",
        "name_en": "Chai Wan Road",
        "marker-symbol": "rail-above"
      },
      "geometry": {
        "type": "Point",
        "coordinates": [
          114.229391,
          22.276734
        ]
      }
    },
    {
      "type": "Feature",
      "properties": {
        "code": "04W",
        "bound": "west",
        "name_zh": "新成街",
        "name_en": "Sun Sing Street",
        "marker-symbol": "rail-above"
      },
      "geometry": {
        "type": "Point",
        "coordinates": [
          114.22577,
          22.279557
        ]
      }
    },
    {
      "type": "Feature",
      "properties": {
        "code": "06W",
        "bound": "west",
        "name_zh": "海富街",
        "name_en": "Hoi Foo Street",
        "marker-symbol": "rail-above"
      },
      "geometry": {
        "type": "Point",
        "coordinates": [
          114.224531,
          22.280473
        ]
      }
    },
    {
      "type": "Feature",
      "properties": {
        "code": "08W",
        "bound": "west",
        "name_zh": "聖十字徑",
        "name_en": "Holy Cross Path",
        "marker-symbol": "rail-above"
      },
      "geometry": {
        "type": "Point",
        "coordinates": [
          114.222508,
          22.281344
        ]
      }
    },
    {
      "type": "Feature",
      "properties": {
        "code": "10W",
        "bound": "west",
        "name_zh": "太康街",
        "name_en": "Tai Hong Street",
        "marker-symbol": "rail-above"
      },
      "geometry": {
        "type": "Point",
        "coordinates": [
          114.221154,
          22.283068
        ]
      }
    },
    {
      "type": "Feature",
      "properties": {
        "code": "12W",
        "bound": "west",
        "name_zh": "太古城道",
        "name_en": "Tai Koo Shing Road",
        "marker-symbol": "rail-above"
      },
      "geometry": {
        "type": "Point",
        "coordinates": [
          114.220445,
          22.284091
        ]
      }
    },
    {
      "type": "Feature",
      "properties": {
        "code": "14W",
        "bound": "west",
        "name_zh": "康山",
        "name_en": "Kornhill",
        "marker-symbol": "rail-above"
      },
      "geometry": {
        "type": "Point",
        "coordinates": [
          114.216048,
          22.284683
        ]
      }
    },
    {
      "type": "Feature",
      "properties": {
        "code": "16W",
        "bound": "west",
        "name_zh": "船塢里",
        "name_en": "Shipyard Lane",
        "marker-symbol": "rail-above"
      },
      "geometry": {
        "type": "Point",
        "coordinates": [
          114.213723,
          22.284697
        ]
      }
    },
    {
      "type": "Feature",
      "properties": {
        "code": "18W",
        "bound": "west",
        "name_zh": "柏架山道",
        "name_en": "Mount Parker Road",
        "marker-symbol": "rail-above"
      },
      "geometry": {
        "type": "Point",
        "coordinates": [
          114.211733,
          22.285038
        ]
      }
    },
    {
      "type": "Feature",
      "properties": {
        "code": "20W",
        "bound": "west",
        "name_zh": "芬尼街",
        "name_en": "Finnie Street",
        "marker-symbol": "rail-above"
      },
      "geometry": {
        "type": "Point",
        "coordinates": [
          114.210015,
          22.288314
        ]
      }
    },
    {
      "type": "Feature",
      "properties": {
        "code": "22W",
        "bound": "west",
        "name_zh": "渣華道",
        "name_en": "Java Road",
        "marker-symbol": "rail-above"
      },
      "geometry": {
        "type": "Point",
        "coordinates": [
          114.209107,
          22.290769
        ]
      }
    },
    {
      "type": "Feature",
      "properties": {
        "code": "24W",
        "bound": "west",
        "name_zh": "健康東街",
        "name_en": "Healthy Street East",
        "marker-symbol": "rail-above"
      },
      "geometry": {
        "type": "Point",
        "coordinates": [
          114.207351,
          22.291803
        ]
      }
    },
    {
      "type": "Feature",
      "properties": {
        "code": "26W",
        "bound": "west",
        "name_zh": "健康西街",
        "name_en": "Healthy Street West",
        "marker-symbol": "rail-above"
      },
      "geometry": {
        "type": "Point",
        "coordinates": [
          114.204383,
          22.292035
        ]
      }
    },
    {
      "type": "Feature",
      "properties": {
        "code": "28W",
        "bound": "west",
        "name_zh": "電照街",
        "name_en": "Tin Chiu Street",
        "marker-symbol": "rail-above"
      },
      "geometry": {
        "type": "Point",
        "coordinates": [
          114.203293,
          22.291823
        ]
      }
    },
    {
      "type": "Feature",
      "properties": {
        "code": "30W",
        "bound": "west",
        "name_zh": "書局街",
        "name_en": "Shu Kuk Street",
        "marker-symbol": "rail-above"
      },
      "geometry": {
        "type": "Point",
        "coordinates": [
          114.20053,
          22.291199
        ]
      }
    },
    {
      "type": "Feature",
      "properties": {
        "code": "NPT",
        "bound": "west",
        "name_zh": "北角總站",
        "name_en": "North Point Terminus",
        "marker-symbol": "rail-above"
      },
      "geometry": {
        "type": "Point",
        "coordinates": [
          114.19894,
          22.291041
        ]
      }
    },
    {
      "type": "Feature",
      "properties": {
        "code": "32W",
        "bound": "west",
        "name_zh": "北角道",
        "name_en": "North Point Road",
        "marker-symbol": "rail-above"
      },
      "geometry": {
        "type": "Point",
        "coordinates": [
          114.196939,
          22.290509
        ]
      }
    },
    {
      "type": "Feature",
      "properties": {
        "code": "34W",
        "bound": "west",
        "name_zh": "炮台山",
        "name_en": "Fortress Hill",
        "marker-symbol": "rail-above"
      },
      "geometry": {
        "type": "Point",
        "coordinates": [
          114.194526,
          22.289433
        ]
      }
    },
    {
      "type": "Feature",
      "properties": {
        "code": "36W",
        "bound": "west",
        "name_zh": "木星街",
        "name_en": "Jupiter Street",
        "marker-symbol": "rail-above"
      },
      "geometry": {
        "type": "Point",
        "coordinates": [
          114.192949,
          22.28669
        ]
      }
    },
    {
      "type": "Feature",
      "properties": {
        "code": "38W",
        "bound": "west",
        "name_zh": "琉璃街",
        "name_en": "Lau Li Street",
        "marker-symbol": "rail-above"
      },
      "geometry": {
        "type": "Point",
        "coordinates": [
          114.19275,
          22.284293
        ]
      }
    },
    {
      "type": "Feature",
      "properties": {
        "code": "40W",
        "bound": "west",
        "name_zh": "留仙街",
        "name_en": "Lau Sin Street",
        "marker-symbol": "rail-above"
      },
      "geometry": {
        "type": "Point",
        "coordinates": [
          114.192388,
          22.283
        ]
      }
    },
    {
      "type": "Feature",
      "properties": {
        "code": "42W",
        "bound": "west",
        "name_zh": "維多利亞公園",
        "name_en": "Victoria Park",
        "marker-symbol": "rail-above"
      },
      "geometry": {
        "type": "Point",
        "coordinates": [
          114.189512,
          22.280656
        ]
      }
    },
    {
      "type": "Feature",
      "properties": {
        "code": "44W",
        "bound": "west",
        "name_zh": "信德街",
        "name_en": "Shelter Street",
        "marker-symbol": "rail-above"
      },
      "geometry": {
        "type": "Point",
        "coordinates": [
          114.188109,
          22.279785
        ]
      }
    },
    {
      "type": "Feature",
      "properties": {
        "code": "CBT",
        "bound": "west",
        "name_zh": "銅鑼灣總站",
        "name_en": "Causeway Bay Terminus",
        "marker-symbol": "rail-above"
      },
      "geometry": {
        "type": "Point",
        "coordinates": [
          114.187259,
          22.279361
        ]
      }
    },
    {
      "type": "Feature",
      "properties": {
        "code": "46W",
        "bound": "west",
        "name_zh": "邊寧頓街",
        "name_en": "Pennington Street",
        "marker-symbol": "rail-above"
      },
      "geometry": {
        "type": "Point",
        "coordinates": [
          114.186498,
          22.279532
        ]
      }
    },
    {
      "type": "Feature",
      "properties": {
        "code": "48W",
        "bound": "west",
        "name_zh": "百德新街",
        "name_en": "Paterson Street",
        "marker-symbol": "rail-above"
      },
      "geometry": {
        "type": "Point",
        "coordinates": [
          114.186259,
          22.279694
        ]
      }
    },
    {
      "type": "Feature",
      "properties": {
        "code": "105",
        "bound": "west",
        "name_zh": "富明街",
        "name_en": "Foo Ming Street",
        "marker-symbol": "rail-above"
      },
      "geometry": {
        "type": "Point",
        "coordinates": [
          114.183232,
          22.2787
        ]
      }
    },
    {
      "type": "Feature",
      "properties": {
        "code": "106",
        "bound": "west",
        "name_zh": "禮頓道",
        "name_en": "Leighton Road",
        "marker-symbol": "rail-above"
      },
      "geometry": {
        "type": "Point",
        "coordinates": [
          114.182521,
          22.277122
        ]
      }
    },
    {
      "type": "Feature",
      "properties": {
        "code": "107",
        "bound": "west",
        "name_zh": "樂活道",
        "name_en": "Broadwood Road",
        "marker-symbol": "rail-above"
      },
      "geometry": {
        "type": "Point",
        "coordinates": [
          114.183667,
          22.274054
        ]
      }
    },
    {
      "type": "Feature",
      "properties": {
        "code": "108",
        "bound": "west",
        "name_zh": "黃泥涌道",
        "name_en": "Wong Nai Chung Road",
        "marker-symbol": "rail-above"
      },
      "geometry": {
        "type": "Point",
        "coordinates": [
          114.184653,
          22.271815
        ]
      }
    },
    {
      "type": "Feature",
      "properties": {
        "code": "HVT_K",
        "bound": "west",
        "name_zh": "跑馬地總站",
        "name_en": "Happy Valley Terminus",
        "marker-symbol": "rail-above"
      },
      "geometry": {
        "type": "Point",
        "coordinates": [
          114.184175,
          22.269831
        ]
      }
    },
    {
      "type": "Feature",
      "properties": {
        "code": "109",
        "bound": "west",
        "name_zh": "天主教墳場",
        "name_en": "Colonial Cemetery",
        "marker-symbol": "rail-above"
      },
      "geometry": {
        "type": "Point",
        "coordinates": [
          114.18002,
          22.272
        ]
      }
    },
    {
      "type": "Feature",
      "properties": {
        "code": "110",
        "bound": "west",
        "name_zh": "皇后大道東",
        "name_en": "Queen's Road East",
        "marker-symbol": "rail-above"
      },
      "geometry": {
        "type": "Point",
        "coordinates": [
          114.179358,
          22.274361
        ]
      }
    },
    {
      "type": "Feature",
      "properties": {
        "code": "111",
        "bound": "west",
        "name_zh": "摩利臣山道",
        "name_en": "Morrison Hill Road",
        "marker-symbol": "rail-above"
      },
      "geometry": {
        "type": "Point",
        "coordinates": [
          114.180437,
          22.276205
        ]
      }
    },
    {
      "type": "Feature",
      "properties": {
        "code": "112",
        "bound": "west",
        "name_zh": "天樂里",
        "name_en": "Tin Lok Lane",
        "marker-symbol": "rail-above"
      },
      "geometry": {
        "type": "Point",
        "coordinates": [
          114.179625,
          22.278624
        ]
      }
    },
    {
      "type": "Feature",
      "properties": {
        "code": "50W",
        "bound": "west",
        "name_zh": "堅拿道西",
        "name_en": "Canal Road West",
        "marker-symbol": "rail-above"
      },
      "geometry": {
        "type": "Point",
        "coordinates": [
          114.180941,
          22.279296
        ]
      }
    },
    {
      "type": "Feature",
      "properties": {
        "code": "52W",
        "bound": "west",
        "name_zh": "杜老誌道",
        "name_en": "Tonnochy Road",
        "marker-symbol": "rail-above"
      },
      "geometry": {
        "type": "Point",
        "coordinates": [
          114.177442,
          22.278112
        ]
      }
    },
    {
      "type": "Feature",
      "properties": {
        "code": "54W",
        "bound": "west",
        "name_zh": "巴路士街",
        "name_en": "Burrows Street",
        "marker-symbol": "rail-above"
      },
      "geometry": {
        "type": "Point",
        "coordinates": [
          114.176098,
          22.277363
        ]
      }
    },
    {
      "type": "Feature",
      "properties": {
        "code": "56W",
        "bound": "west",
        "name_zh": "柯布連道",
        "name_en": "O'Brien Road",
        "marker-symbol": "rail-above"
      },
      "geometry": {
        "type": "Point",
        "coordinates": [
          114.173208,
          22.276513
        ]
      }
    },
    {
      "type": "Feature",
      "properties": {
        "code": "58W",
        "bound": "west",
        "name_zh": "汕頭街",
        "name_en": "Swatow Street",
        "marker-symbol": "rail-above"
      },
      "geometry": {
        "type": "Point",
        "coordinates": [
          114.171947,
          22.276387
        ]
      }
    },
    {
      "type": "Feature",
      "properties": {
        "code": "60W",
        "bound": "west",
        "name_zh": "機利臣街",
        "name_en": "Gresson Street",
        "marker-symbol": "rail-above"
      },
      "geometry": {
        "type": "Point",
        "coordinates": [
          114.170273,
          22.277052
        ]
      }
    },
    {
      "type": "Feature",
      "properties": {
        "code": "62W",
        "bound": "west",
        "name_zh": "軍器廠街",
        "name_en": "Arsenal Street",
        "marker-symbol": "rail-above"
      },
      "geometry": {
        "type": "Point",
        "coordinates": [
          114.168467,
          22.277766
        ]
      }
    },
    {
      "type": "Feature",
      "properties": {
        "code": "64W",
        "bound": "west",
        "name_zh": "金鐘港鐵站",
        "name_en": "Admiralty MTR Station",
        "marker-symbol": "rail-above"
      },
      "geometry": {
        "type": "Point",
        "coordinates": [
          114.165356,
          22.278206
        ]
      }
    },
    {
      "type": "Feature",
      "properties": {
        "code": "66W",
        "bound": "west",
        "name_zh": "紅棉道",
        "name_en": "Cotton Tree Drive",
        "marker-symbol": "rail-above"
      },
      "geometry": {
        "type": "Point",
        "coordinates": [
          114.163001,
          22.279143
        ]
      }
    },
    {
      "type": "Feature",
      "properties": {
        "code": "68W",
        "bound": "west",
        "name_zh": "銀行街",
        "name_en": "Bank Street",
        "marker-symbol": "rail-above"
      },
      "geometry": {
        "type": "Point",
        "coordinates": [
          114.159426,
          22.280708
        ]
      }
    },
    {
      "type": "Feature",
      "properties": {
        "code": "70W",
        "bound": "west",
        "name_zh": "畢打街",
        "name_en": "Pedder Street",
        "marker-symbol": "rail-above"
      },
      "geometry": {
        "type": "Point",
        "coordinates": [
          114.157883,
          22.281869
        ]
      }
    },
    {
      "type": "Feature",
      "properties": {
        "code": "72W",
        "bound": "west",
        "name_zh": "砵甸乍街",
        "name_en": "Pottinger Street",
        "marker-symbol": "rail-above"
      },
      "geometry": {
        "type": "Point",
        "coordinates": [
          114.156509,
          22.283559
        ]
      }
    },
    {
      "type": "Feature",
      "properties": {
        "code": "74W",
        "bound": "west",
        "name_zh": "機利文街",
        "name_en": "Gilman Street",
        "marker-symbol": "rail-above"
      },
      "geometry": {
        "type": "Point",
        "coordinates": [
          114.15485,
          22.285295
        ]
      }
    },
    {
      "type": "Feature",
      "properties": {
        "code": "76W",
        "bound": "west",
        "name_zh": "文華里",
        "name_en": "Man Wah Lane",
        "marker-symbol": "rail-above"
      },
      "geometry": {
        "type": "Point",
        "coordinates": [
          114.152926,
          22.286302
        ]
      }
    },
    {
      "type": "Feature",
      "properties": {
        "code": "WM",
        "bound": "west",
        "name_zh": "上環街市",
        "name_en": "Western Market Terminus",
        "marker-symbol": "rail-above"
      },
      "geometry": {
        "type": "Point",
        "coordinates": [
          114.150715,
          22.286873
        ]
      }
    },
    {
      "type": "Feature",
      "properties": {
        "code": "78W",
        "bound": "west",
        "name_zh": "港澳碼頭",
        "name_en": "Macau Ferry Terminal",
        "marker-symbol": "rail-above"
      },
      "geometry": {
        "type": "Point",
        "coordinates": [
          114.1502,
          22.287723
        ]
      }
    },
    {
      "type": "Feature",
      "properties": {
        "code": "80W",
        "bound": "west",
        "name_zh": "干諾道西",
        "name_en": "Connaught Road West",
        "marker-symbol": "rail-above"
      },
      "geometry": {
        "type": "Point",
        "coordinates": [
          114.148458,
          22.288131
        ]
      }
    },
    {
      "type": "Feature",
      "properties": {
        "code": "82W",
        "bound": "west",
        "name_zh": "修打蘭街",
        "name_en": "Sutherland Street",
        "marker-symbol": "rail-above"
      },
      "geometry": {
        "type": "Point",
        "coordinates": [
          114.145935,
          22.287747
        ]
      }
    },
    {
      "type": "Feature",
      "properties": {
        "code": "84W",
        "bound": "west",
        "name_zh": "東邊街",
        "name_en": "Eastern Street",
        "marker-symbol": "rail-above"
      },
      "geometry": {
        "type": "Point",
        "coordinates": [
          114.143684,
          22.287884
        ]
      }
    },
    {
      "type": "Feature",
      "properties": {
        "code": "86W",
        "bound": "west",
        "name_zh": "西邊街",
        "name_en": "Western Street",
        "marker-symbol": "rail-above"
      },
      "geometry": {
        "type": "Point",
        "coordinates": [
          114.140924,
          22.28795
        ]
      }
    },
    {
      "type": "Feature",
      "properties": {
        "code": "88W",
        "bound": "west",
        "name_zh": "水街",
        "name_en": "Water Street",
        "marker-symbol": "rail-above"
      },
      "geometry": {
        "type": "Point",
        "coordinates": [
          114.138898,
          22.287461
        ]
      }
    },
    {
      "type": "Feature",
      "properties": {
        "code": "90W",
        "bound": "west",
        "name_zh": "屈地街",
        "name_en": "Whitty Street",
        "marker-symbol": "rail-above"
      },
      "geometry": {
        "type": "Point",
        "coordinates": [
          114.136549,
          22.286823
        ]
      }
    },
    {
      "type": "Feature",
      "properties": {
        "code": "92W",
        "bound": "west",
        "name_zh": "山道",
        "name_en": "Hill Road",
        "marker-symbol": "rail-above"
      },
      "geometry": {
        "type": "Point",
        "coordinates": [
          114.134573,
          22.287034
        ]
      }
    },
    {
      "type": "Feature",
      "properties": {
        "code": "94W",
        "bound": "west",
        "name_zh": "屈地街電車廠",
        "name_en": "Whitty Street Depot",
        "marker-symbol": "rail-above"
      },
      "geometry": {
        "type": "Point",
        "coordinates": [
          114.137907,
          22.288169
        ]
      }
    },
    {
      "type": "Feature",
      "properties": {
        "code": "96W",
        "bound": "west",
        "name_zh": "皇后大道西",
        "name_en": "Queen's Road West",
        "marker-symbol": "rail-above"
      },
      "geometry": {
        "type": "Point",
        "coordinates": [
          114.132418,
          22.286809
        ]
      }
    },
    {
      "type": "Feature",
      "properties": {
        "code": "98W",
        "bound": "west",
        "name_zh": "堅尼地城海傍",
        "name_en": "Kennedy Town Praya",
        "marker-symbol": "rail-above"
      },
      "geometry": {
        "type": "Point",
        "coordinates": [
          114.130731,
          22.284661
        ]
      }
    },
    {
      "type": "Feature",
      "properties": {
        "code": "100W",
        "bound": "west",
        "name_zh": "山市街",
        "name_en": "Sands Street",
        "marker-symbol": "rail-above"
      },
      "geometry": {
        "type": "Point",
        "coordinates": [
          114.129561,
          22.283723
        ]
      }
    },
    {
      "type": "Feature",
      "properties": {
        "code": "102W",
        "bound": "west",
        "name_zh": "士美菲路",
        "name_en": "Smithfield",
        "marker-symbol": "rail-above"
      },
      "geometry": {
        "type": "Point",
        "coordinates": [
          114.128263,
          22.283384
        ]
      }
    },
    {
      "type": "Feature",
      "properties": {
        "code": "104W",
        "bound": "west",
        "name_zh": "爹核士街",
        "name_en": "Davis Street",
        "marker-symbol": "rail-above"
      },
      "geometry": {
        "type": "Point",
        "coordinates": [
          114.126767,
          22.28305
        ]
      }
    },
    {
      "type": "Feature",
      "properties": {
        "code": "KTT",
        "bound": "east",
        "name_zh": "堅尼地城總站",
        "name_en": "Kennedy Town Terminus",
        "marker-symbol": "rail-above"
      },
      "geometry": {
        "type": "Point",
        "coordinates": [
          114.12628,
          22.282967
        ]
      }
    },
    {
      "type": "Feature",
      "properties": {
        "code": "01E",
        "bound": "east",
        "name_zh": "北街",
        "name_en": "North Street",
        "marker-symbol": "rail-above"
      },
      "geometry": {
        "type": "Point",
        "coordinates": [
          114.128887,
          22.283444
        ]
      }
    },
    {
      "type": "Feature",
      "properties": {
        "code": "03E",
        "bound": "east",
        "name_zh": "荷蘭街",
        "name_en": "Holland Street",
        "marker-symbol": "rail-above"
      },
      "geometry": {
        "type": "Point",
        "coordinates": [
          114.130609,
          22.284599
        ]
      }
    },
    {
      "type": "Feature",
      "properties": {
        "code": "05E",
        "bound": "east",
        "name_zh": "皇后大道西",
        "name_en": "Queen's Road West",
        "marker-symbol": "rail-above"
      },
      "geometry": {
        "type": "Point",
        "coordinates": [
          114.132418,
          22.286809
        ]
      }
    },
    {
      "type": "Feature",
      "properties": {
        "code": "07E",
        "bound": "east",
        "name_zh": "山道",
        "name_en": "Hill Road",
        "marker-symbol": "rail-above"
      },
      "geometry": {
        "type": "Point",
        "coordinates": [
          114.134573,
          22.287034
        ]
      }
    },
    {
      "type": "Feature",
      "properties": {
        "code": "WST",
        "bound": "east",
        "name_zh": "石塘咀總站",
        "name_en": "Shek Tong Tsui Terminus",
        "marker-symbol": "rail-above"
      },
      "geometry": {
        "type": "Point",
        "coordinates": [
          114.135106,
          22.286932
        ]
      }
    },
    {
      "type": "Feature",
      "properties": {
        "code": "09E",
        "bound": "east",
        "name_zh": "屈地街",
        "name_en": "Whitty Street",
        "marker-symbol": "rail-above"
      },
      "geometry": {
        "type": "Point",
        "coordinates": [
          114.136549,
          22.286823
        ]
      }
    },
    {
      "type": "Feature",
      "properties": {
        "code": "11E",
        "bound": "east",
        "name_zh": "水街",
        "name_en": "Water Street",
        "marker-symbol": "rail-above"
      },
      "geometry": {
        "type": "Point",
        "coordinates": [
          114.138898,
          22.287461
        ]
      }
    },
    {
      "type": "Feature",
      "properties": {
        "code": "13E",
        "bound": "east",
        "name_zh": "西邊街",
        "name_en": "Western Street",
        "marker-symbol": "rail-above"
      },
      "geometry": {
        "type": "Point",
        "coordinates": [
          114.140924,
          22.28795
        ]
      }
    },
    {
      "type": "Feature",
      "properties": {
        "code": "15E",
        "bound": "east",
        "name_zh": "東邊街",
        "name_en": "Eastern Street",
        "marker-symbol": "rail-above"
      },
      "geometry": {
        "type": "Point",
        "coordinates": [
          114.143684,
          22.287884
        ]
      }
    },
    {
      "type": "Feature",
      "properties": {
        "code": "17E",
        "bound": "east",
        "name_zh": "皇后街",
        "name_en": "Queen Street",
        "marker-symbol": "rail-above"
      },
      "geometry": {
        "type": "Point",
        "coordinates": [
          114.147028,
          22.28767
        ]
      }
    },
    {
      "type": "Feature",
      "properties": {
        "code": "19E",
        "bound": "east",
        "name_zh": "港澳碼頭",
        "name_en": "Macau Ferry Terminal",
        "marker-symbol": "rail-above"
      },
      "geometry": {
        "type": "Point",
        "coordinates": [
          114.1502,
          22.287723
        ]
      }
    },
    {
      "type": "Feature",
      "properties": {
        "code": "WMT",
        "bound": "east",
        "name_zh": "上環 (西港城) 總站",
        "name_en": "Western Market Terminus",
        "marker-symbol": "rail-above"
      },
      "geometry": {
        "type": "Point",
        "coordinates": [
          114.150715,
          22.286873
        ]
      }
    },
    {
      "type": "Feature",
      "properties": {
        "code": "21E",
        "bound": "east",
        "name_zh": "禧利街",
        "name_en": "Hillier Street",
        "marker-symbol": "rail-above"
      },
      "geometry": {
        "type": "Point",
        "coordinates": [
          114.15198,
          22.286608
        ]
      }
    },
    {
      "type": "Feature",
      "properties": {
        "code": "23E",
        "bound": "east",
        "name_zh": "機利文街",
        "name_en": "Gilman Street",
        "marker-symbol": "rail-above"
      },
      "geometry": {
        "type": "Point",
        "coordinates": [
          114.15485,
          22.285295
        ]
      }
    },
    {
      "type": "Feature",
      "properties": {
        "code": "25E",
        "bound": "east",
        "name_zh": "租庇利街",
        "name_en": "Jubilee Street",
        "marker-symbol": "rail-above"
      },
      "geometry": {
        "type": "Point",
        "coordinates": [
          114.155691,
          22.284684
        ]
      }
    },
    {
      "type": "Feature",
      "properties": {
        "code": "27E",
        "bound": "east",
        "name_zh": "畢打街",
        "name_en": "Pedder Street",
        "marker-symbol": "rail-above"
      },
      "geometry": {
        "type": "Point",
        "coordinates": [
          114.157883,
          22.281869
        ]
      }
    },
    {
      "type": "Feature",
      "properties": {
        "code": "29E",
        "bound": "east",
        "name_zh": "雪廠街",
        "name_en": "Ice House Street",
        "marker-symbol": "rail-above"
      },
      "geometry": {
        "type": "Point",
        "coordinates": [
          114.158564,
          22.281066
        ]
      }
    },
    {
      "type": "Feature",
      "properties": {
        "code": "31E",
        "bound": "east",
        "name_zh": "銀行街",
        "name_en": "Bank Street",
        "marker-symbol": "rail-above"
      },
      "geometry": {
        "type": "Point",
        "coordinates": [
          114.159426,
          22.280708
        ]
      }
    },
    {
      "type": "Feature",
      "properties": {
        "code": "33E",
        "bound": "east",
        "name_zh": "美利道",
        "name_en": "Murray Road",
        "marker-symbol": "rail-above"
      },
      "geometry": {
        "type": "Point",
        "coordinates": [
          114.161213,
          22.279935
        ]
      }
    },
    {
      "type": "Feature",
      "properties": {
        "code": "35E",
        "bound": "east",
        "name_zh": "金鐘港鐵站",
        "name_en": "Admiralty MTR Station",
        "marker-symbol": "rail-above"
      },
      "geometry": {
        "type": "Point",
        "coordinates": [
          114.165356,
          22.278206
        ]
      }
    },
    {
      "type": "Feature",
      "properties": {
        "code": "37E",
        "bound": "east",
        "name_zh": "軍器廠街",
        "name_en": "Arsenal Street",
        "marker-symbol": "rail-above"
      },
      "geometry": {
        "type": "Point",
        "coordinates": [
          114.168467,
          22.277766
        ]
      }
    },
    {
      "type": "Feature",
      "properties": {
        "code": "39E",
        "bound": "east",
        "name_zh": "分域街",
        "name_en": "Fenwick Street",
        "marker-symbol": "rail-above"
      },
      "geometry": {
        "type": "Point",
        "coordinates": [
          114.170056,
          22.277301
        ]
      }
    },
    {
      "type": "Feature",
      "properties": {
        "code": "41E",
        "bound": "east",
        "name_zh": "盧押道",
        "name_en": "Luard Road",
        "marker-symbol": "rail-above"
      },
      "geometry": {
        "type": "Point",
        "coordinates": [
          114.171629,
          22.276471
        ]
      }
    },
    {
      "type": "Feature",
      "properties": {
        "code": "43E",
        "bound": "east",
        "name_zh": "柯布連道",
        "name_en": "O'Brien Road",
        "marker-symbol": "rail-above"
      },
      "geometry": {
        "type": "Point",
        "coordinates": [
          114.173208,
          22.276513
        ]
      }
    },
    {
      "type": "Feature",
      "properties": {
        "code": "45E",
        "bound": "east",
        "name_zh": "菲林明道",
        "name_en": "Fleming Road",
        "marker-symbol": "rail-above"
      },
      "geometry": {
        "type": "Point",
        "coordinates": [
          114.175047,
          22.276879
        ]
      }
    },
    {
      "type": "Feature",
      "properties": {
        "code": "47E",
        "bound": "east",
        "name_zh": "杜老誌道",
        "name_en": "Tonnochy Road",
        "marker-symbol": "rail-above"
      },
      "geometry": {
        "type": "Point",
        "coordinates": [
          114.177442,
          22.278112
        ]
      }
    },
    {
      "type": "Feature",
      "properties": {
        "code": "49E",
        "bound": "east",
        "name_zh": "堅拿道西",
        "name_en": "Canal Road West",
        "marker-symbol": "rail-above"
      },
      "geometry": {
        "type": "Point",
        "coordinates": [
          114.180941,
          22.279296
        ]
      }
    },
    {
      "type": "Feature",
      "properties": {
        "code": "105",
        "bound": "east",
        "name_zh": "富明街",
        "name_en": "Foo Ming Street",
        "marker-symbol": "rail-above"
      },
      "geometry": {
        "type": "Point",
        "coordinates": [
          114.183232,
          22.2787
        ]
      }
    },
    {
      "type": "Feature",
      "properties": {
        "code": "106",
        "bound": "east",
        "name_zh": "禮頓道",
        "name_en": "Leighton Road",
        "marker-symbol": "rail-above"
      },
      "geometry": {
        "type": "Point",
        "coordinates": [
          114.182521,
          22.277122
        ]
      }
    },
    {
      "type": "Feature",
      "properties": {
        "code": "107",
        "bound": "east",
        "name_zh": "樂活道",
        "name_en": "Broadwood Road",
        "marker-symbol": "rail-above"
      },
      "geometry": {
        "type": "Point",
        "coordinates": [
          114.183667,
          22.274054
        ]
      }
    },
    {
      "type": "Feature",
      "properties": {
        "code": "108",
        "bound": "east",
        "name_zh": "黃泥涌道",
        "name_en": "Wong Nai Chung Road",
        "marker-symbol": "rail-above"
      },
      "geometry": {
        "type": "Point",
        "coordinates": [
          114.184653,
          22.271815
        ]
      }
    },
    {
      "type": "Feature",
      "properties": {
        "code": "HVT_B",
        "bound": "east",
        "name_zh": "跑馬地總站",
        "name_en": "Happy Valley Terminus",
        "marker-symbol": "rail-above"
      },
      "geometry": {
        "type": "Point",
        "coordinates": [
          114.184175,
          22.269831
        ]
      }
    },
    {
      "type": "Feature",
      "properties": {
        "code": "109",
        "bound": "east",
        "name_zh": "天主教墳場",
        "name_en": "Colonial Cemetery",
        "marker-symbol": "rail-above"
      },
      "geometry": {
        "type": "Point",
        "coordinates": [
          114.18002,
          22.272
        ]
      }
    },
    {
      "type": "Feature",
      "properties": {
        "code": "110",
        "bound": "east",
        "name_zh": "皇后大道東",
        "name_en": "Queen's Road East",
        "marker-symbol": "rail-above"
      },
      "geometry": {
        "type": "Point",
        "coordinates": [
          114.179358,
          22.274361
        ]
      }
    },
    {
      "type": "Feature",
      "properties": {
        "code": "111",
        "bound": "east",
        "name_zh": "摩利臣山道",
        "name_en": "Morrison Hill Road",
        "marker-symbol": "rail-above"
      },
      "geometry": {
        "type": "Point",
        "coordinates": [
          114.180437,
          22.276205
        ]
      }
    },
    {
      "type": "Feature",
      "properties": {
        "code": "112",
        "bound": "east",
        "name_zh": "天樂里",
        "name_en": "Tin Lok Lane",
        "marker-symbol": "rail-above"
      },
      "geometry": {
        "type": "Point",
        "coordinates": [
          114.179625,
          22.278624
        ]
      }
    },
    {
      "type": "Feature",
      "properties": {
        "code": "51E",
        "bound": "east",
        "name_zh": "波斯富街",
        "name_en": "Percival Street",
        "marker-symbol": "rail-above"
      },
      "geometry": {
        "type": "Point",
        "coordinates": [
          114.182951,
          22.280043
        ]
      }
    },
    {
      "type": "Feature",
      "properties": {
        "code": "53E",
        "bound": "east",
        "name_zh": "百德新街",
        "name_en": "Paterson Street",
        "marker-symbol": "rail-above"
      },
      "geometry": {
        "type": "Point",
        "coordinates": [
          114.186259,
          22.279694
        ]
      }
    },
    {
      "type": "Feature",
      "properties": {
        "code": "55E",
        "bound": "east",
        "name_zh": "信德街",
        "name_en": "Shelter Street",
        "marker-symbol": "rail-above"
      },
      "geometry": {
        "type": "Point",
        "coordinates": [
          114.188109,
          22.279785
        ]
      }
    },
    {
      "type": "Feature",
      "properties": {
        "code": "57E",
        "bound": "east",
        "name_zh": "維多利亞公園",
        "name_en": "Victoria Park",
        "marker-symbol": "rail-above"
      },
      "geometry": {
        "type": "Point",
        "coordinates": [
          114.189512,
          22.280656
        ]
      }
    },
    {
      "type": "Feature",
      "properties": {
        "code": "59E",
        "bound": "east",
        "name_zh": "興發街",
        "name_en": "Hing Fat Street",
        "marker-symbol": "rail-above"
      },
      "geometry": {
        "type": "Point",
        "coordinates": [
          114.191062,
          22.281702
        ]
      }
    },
    {
      "type": "Feature",
      "properties": {
        "code": "61E",
        "bound": "east",
        "name_zh": "永興街",
        "name_en": "Wing Hing Street",
        "marker-symbol": "rail-above"
      },
      "geometry": {
        "type": "Point",
        "coordinates": [
          114.192886,
          22.285105
        ]
      }
    },
    {
      "type": "Feature",
      "properties": {
        "code": "63E",
        "bound": "east",
        "name_zh": "木星街",
        "name_en": "Jupiter Street",
        "marker-symbol": "rail-above"
      },
      "geometry": {
        "type": "Point",
        "coordinates": [
          114.192949,
          22.28669
        ]
      }
    },
    {
      "type": "Feature",
      "properties": {
        "code": "65E",
        "bound": "east",
        "name_zh": "炮台山",
        "name_en": "Fortress Hill",
        "marker-symbol": "rail-above"
      },
      "geometry": {
        "type": "Point",
        "coordinates": [
          114.194526,
          22.289433
        ]
      }
    },
    {
      "type": "Feature",
      "properties": {
        "code": "67E",
        "bound": "east",
        "name_zh": "春秧街",
        "name_en": "Chun Yeung Street",
        "marker-symbol": "rail-above"
      },
      "geometry": {
        "type": "Point",
        "coordinates": [
          114.196733,
          22.291073
        ]
      }
    },
    {
      "type": "Feature",
      "properties": {
        "code": "69E",
        "bound": "east",
        "name_zh": "北角道",
        "name_en": "North Point Road",
        "marker-symbol": "rail-above"
      },
      "geometry": {
        "type": "Point",
        "coordinates": [
          114.196939,
          22.290509
        ]
      }
    },
    {
      "type": "Feature",
      "properties": {
        "code": "71E",
        "bound": "east",
        "name_zh": "書局街",
        "name_en": "Shu Kuk Street",
        "marker-symbol": "rail-above"
      },
      "geometry": {
        "type": "Point",
        "coordinates": [
          114.20053,
          22.291199
        ]
      }
    },
    {
      "type": "Feature",
      "properties": {
        "code": "73E",
        "bound": "east",
        "name_zh": "電照街",
        "name_en": "Tin Chiu Street",
        "marker-symbol": "rail-above"
      },
      "geometry": {
        "type": "Point",
        "coordinates": [
          114.203293,
          22.291823
        ]
      }
    },
    {
      "type": "Feature",
      "properties": {
        "code": "75E",
        "bound": "east",
        "name_zh": "健康西街",
        "name_en": "Healthy Street West",
        "marker-symbol": "rail-above"
      },
      "geometry": {
        "type": "Point",
        "coordinates": [
          114.204383,
          22.292035
        ]
      }
    },
    {
      "type": "Feature",
      "properties": {
        "code": "77E",
        "bound": "east",
        "name_zh": "健康東街",
        "name_en": "Healthy Street East",
        "marker-symbol": "rail-above"
      },
      "geometry": {
        "type": "Point",
        "coordinates": [
          114.207351,
          22.291803
        ]
      }
    },
    {
      "type": "Feature",
      "properties": {
        "code": "79E",
        "bound": "east",
        "name_zh": "渣華道",
        "name_en": "Java Road",
        "marker-symbol": "rail-above"
      },
      "geometry": {
        "type": "Point",
        "coordinates": [
          114.209107,
          22.290769
        ]
      }
    },
    {
      "type": "Feature",
      "properties": {
        "code": "81E",
        "bound": "east",
        "name_zh": "芬尼街",
        "name_en": "Finnie Street",
        "marker-symbol": "rail-above"
      },
      "geometry": {
        "type": "Point",
        "coordinates": [
          114.210015,
          22.288314
        ]
      }
    },
    {
      "type": "Feature",
      "properties": {
        "code": "83E",
        "bound": "east",
        "name_zh": "柏架山道",
        "name_en": "Mount Parker Road",
        "marker-symbol": "rail-above"
      },
      "geometry": {
        "type": "Point",
        "coordinates": [
          114.211733,
          22.285038
        ]
      }
    },
    {
      "type": "Feature",
      "properties": {
        "code": "85E",
        "bound": "east",
        "name_zh": "船塢里",
        "name_en": "Shipyard Lane",
        "marker-symbol": "rail-above"
      },
      "geometry": {
        "type": "Point",
        "coordinates": [
          114.213723,
          22.284697
        ]
      }
    },
    {
      "type": "Feature",
      "properties": {
        "code": "87E",
        "bound": "east",
        "name_zh": "康山",
        "name_en": "Kornhill",
        "marker-symbol": "rail-above"
      },
      "geometry": {
        "type": "Point",
        "coordinates": [
          114.216048,
          22.284683
        ]
      }
    },
    {
      "type": "Feature",
      "properties": {
        "code": "89E",
        "bound": "east",
        "name_zh": "太古城道",
        "name_en": "Tai Koo Shing Road",
        "marker-symbol": "rail-above"
      },
      "geometry": {
        "type": "Point",
        "coordinates": [
          114.220445,
          22.284091
        ]
      }
    },
    {
      "type": "Feature",
      "properties": {
        "code": "91E",
        "bound": "east",
        "name_zh": "太康街",
        "name_en": "Tai Hong Street",
        "marker-symbol": "rail-above"
      },
      "geometry": {
        "type": "Point",
        "coordinates": [
          114.221154,
          22.283068
        ]
      }
    },
    {
      "type": "Feature",
      "properties": {
        "code": "93E",
        "bound": "east",
        "name_zh": "太安街",
        "name_en": "Tai On Street",
        "marker-symbol": "rail-above"
      },
      "geometry": {
        "type": "Point",
        "coordinates": [
          114.221898,
          22.282201
        ]
      }
    },
    {
      "type": "Feature",
      "properties": {
        "code": "95E",
        "bound": "east",
        "name_zh": "海富街",
        "name_en": "Hoi Foo Street",
        "marker-symbol": "rail-above"
      },
      "geometry": {
        "type": "Point",
        "coordinates": [
          114.224531,
          22.280473
        ]
      }
    },
    {
      "type": "Feature",
      "properties": {
        "code": "97E",
        "bound": "east",
        "name_zh": "西灣河電車廠",
        "name_en": "Sai Wan Ho Depot",
        "marker-symbol": "rail-above"
      },
      "geometry": {
        "type": "Point",
        "coordinates": [
          114.2258,
          22.280154
        ]
      }
    },
    {
      "type": "Feature",
      "properties": {
        "code": "99E",
        "bound": "east",
        "name_zh": "南康街",
        "name_en": "Nam Hong Street",
        "marker-symbol": "rail-above"
      },
      "geometry": {
        "type": "Point",
        "coordinates": [
          114.226053,
          22.279239
        ]
      }
    },
    {
      "type": "Feature",
      "properties": {
        "code": "101E",
        "bound": "east",
        "name_zh": "柴灣道",
        "name_en": "Chai Wan Road",
        "marker-symbol": "rail-above"
      },
      "geometry": {
        "type": "Point",
        "coordinates": [
          114.229391,
          22.276734
        ]
      }
    }
  ]
}
